{
    "links": {
        "self": "http://www.neowsapp.com/rest/v1/neo/3469642?api_key=iIulBulltgU6a56xZRHN4H3l9WmuAYTsLGpBGhQ2"
    },
    "id": "3469642",
    "neo_reference_id": "3469642",
    "name": "(2009 SU171)",
    "designation": "2009 SU171",
    "nasa_jpl_url": "http://ssd.jpl.nasa.gov/sbdb.cgi?sstr=3469642",
    "absolute_magnitude_h": 23.5,
    "estimated_diameter": {
        "kilometers": {
            "estimated_diameter_min": 0.0530340723,
            "estimated_diameter_max": 0.1185877909
        },
        "meters": {
            "estimated_diameter_min": 53.0340723319,
            "estimated_diameter_max": 118.5877908577
        },
        "miles": {
            "estimated_diameter_min": 0.0329538346,
            "estimated_diameter_max": 0.0736870142
        },
        "feet": {
            "estimated_diameter_min": 173.9963058693,
            "estimated_diameter_max": 389.0675677576
        }
    },
    "is_potentially_hazardous_asteroid": false,
    "close_approach_data": [
        {
            "close_approach_date": "1934-06-01",
            "close_approach_date_full": "1934-Jun-01 02:33",
            "epoch_date_close_approach": -1123018020000,
            "relative_velocity": {
                "kilometers_per_second": "18.7255350742",
                "kilometers_per_hour": "67411.9262670646",
                "miles_per_hour": "41887.1494074435"
            },
            "miss_distance": {
                "astronomical": "0.1244005258",
                "lunar": "48.3918045362",
                "kilometers": "18610053.686560046",
                "miles": "11563751.1425627948"
            },
            "orbiting_body": "Venus"
        },
        {
            "close_approach_date": "2009-09-14",
            "close_approach_date_full": "2009-Sep-14 19:03",
            "epoch_date_close_approach": 1252954980000,
            "relative_velocity": {
                "kilometers_per_second": "15.2266441219",
                "kilometers_per_hour": "54815.9188388155",
                "miles_per_hour": "34060.4802362629"
            },
            "miss_distance": {
                "astronomical": "0.0655905942",
                "lunar": "25.5147411438",
                "kilometers": "9812213.184354354",
                "miles": "6097026.5498799252"
            },
            "orbiting_body": "Earth"
        },
        {
            "close_approach_date": "2177-03-04",
            "close_approach_date_full": "2177-Mar-04 18:26",
            "epoch_date_close_approach": 6537781560000,
            "relative_velocity": {
                "kilometers_per_second": "14.8595232152",
                "kilometers_per_hour": "53494.2835745612",
                "miles_per_hour": "33239.2674799822"
            },
            "miss_distance": {
                "astronomical": "0.1040703036",
                "lunar": "40.4833481004",
                "kilometers": "15568695.748813332",
                "miles": "9673938.9518027016"
            },
            "orbiting_body": "Earth"
        }
    ],
    "orbital_data": {
        "orbit_id": "7",
        "orbit_determination_date": "2017-04-06 08:59:44",
        "first_observation_date": "2009-09-28",
        "last_observation_date": "2009-09-29",
        "data_arc_in_days": 1,
        "observations_used": 22,
        "orbit_uncertainty": "8",
        "minimum_orbit_intersection": ".0582224",
        "jupiter_tisserand_invariant": "5.107",
        "epoch_osculation": "2455103.5",
        "eccentricity": ".4854733202893871",
        "semi_major_axis": "1.216941256332162",
        "inclination": "10.47238991042289",
        "ascending_node_longitude": "10.54164095639905",
        "orbital_period": "490.3462393238798",
        "perihelion_distance": ".6261487440234493",
        "perihelion_argument": "241.7028231351705",
        "aphelion_distance": "1.807733768640875",
        "perihelion_time": "2455028.192364189698",
        "mean_anomaly": "55.28899116079839",
        "mean_motion": ".7341751014474805",
        "equinox": "J2000",
        "orbit_class": {
            "orbit_class_type": "APO",
            "orbit_class_description": "Near-Earth asteroid orbits which cross the Earth’s orbit similar to that of 1862 Apollo",
            "orbit_class_range": "a (semi-major axis) > 1.0 AU; q (perihelion) < 1.017 AU"
        }
    },
    "is_sentry_object": false
}